[{"OBJECT_NAME":"BRITE-PL2 (HEWELIUSZ)","OBJECT_ID":"2014-049B","EPOCH":"2026-03-09T20:58:34.162464","MEAN_MOTION":14.94186201,"ECCENTRICITY":0.00154454,"INCLINATION":97.8982,"RA_OF_ASC_NODE":180.2053,"ARG_OF_PERICENTER":80.5248,"MEAN_ANOMALY":279.7716,"EPHEMERIS_TYPE":0,"CLASSIFICATION_TYPE":"U","NORAD_CAT_ID":40119,"ELEMENT_SET_NO":999,"REV_AT_EPOCH":62661,"BSTAR":0.00026097212,"MEAN_MOTION_DOT":2.742e-5,"MEAN_MOTION_DDOT":0},{"OBJECT_NAME":"STARLINK-34470","OBJECT_ID":"2025-142H","EPOCH":"2026-03-09T22:45:07.894656","MEAN_MOTION":14.98329357,"ECCENTRICITY":0.00025936,"INCLINATION":70.0014,"RA_OF_ASC_NODE":313.6141,"ARG_OF_PERICENTER":265.5374,"MEAN_ANOMALY":94.5489,"EPHEMERIS_TYPE":0,"CLASSIFICATION_TYPE":"U","NORAD_CAT_ID":64703,"ELEMENT_SET_NO":999,"REV_AT_EPOCH":3950,"BSTAR":0.00061597717,"MEAN_MOTION_DOT":7.264e-5,"MEAN_MOTION_DDOT":0}]
